[{"OBJECT_NAME":"STARLINK-1681","OBJECT_ID":"2020-070AD","EPOCH":"2026-03-10T00:00:02.999808","MEAN_MOTION":15.77686848,"ECCENTRICITY":0.00086189,"INCLINATION":53.0491,"RA_OF_ASC_NODE":72.8238,"ARG_OF_PERICENTER":15.0896,"MEAN_ANOMALY":335.2211,"EPHEMERIS_TYPE":0,"CLASSIFICATION_TYPE":"U","NORAD_CAT_ID":46559,"ELEMENT_SET_NO":999,"REV_AT_EPOCH":597,"BSTAR":0.0010315887,"MEAN_MOTION_DOT":0.00179651,"MEAN_MOTION_DDOT":0},{"OBJECT_NAME":"STARLINK-1975","OBJECT_ID":"2021-009AB","EPOCH":"2026-03-09T22:00:01.999584","MEAN_MOTION":15.77661104,"ECCENTRICITY":0.0004759,"INCLINATION":53.0518,"RA_OF_ASC_NODE":307.9346,"ARG_OF_PERICENTER":123.581,"MEAN_ANOMALY":224.1672,"EPHEMERIS_TYPE":0,"CLASSIFICATION_TYPE":"U","NORAD_CAT_ID":47573,"ELEMENT_SET_NO":999,"REV_AT_EPOCH":585,"BSTAR":0.00062457323,"MEAN_MOTION_DOT":0.00107302,"MEAN_MOTION_DDOT":0}]
